[{"OBJECT_NAME":"KUIPER-00213","OBJECT_ID":"2026-030P","EPOCH":"2026-03-08T15:05:25.180224","MEAN_MOTION":15.32369352,"ECCENTRICITY":0.00151968,"INCLINATION":51.8819,"RA_OF_ASC_NODE":224.6944,"ARG_OF_PERICENTER":62.8691,"MEAN_ANOMALY":297.3842,"EPHEMERIS_TYPE":0,"CLASSIFICATION_TYPE":"U","NORAD_CAT_ID":67777,"ELEMENT_SET_NO":999,"REV_AT_EPOCH":492,"BSTAR":-0.0073765289,"MEAN_MOTION_DOT":-0.00228383,"MEAN_MOTION_DDOT":0},{"OBJECT_NAME":"KUIPER-00214","OBJECT_ID":"2026-030Q","EPOCH":"2026-03-08T13:47:18.752640","MEAN_MOTION":15.36726044,"ECCENTRICITY":3.968e-5,"INCLINATION":51.8845,"RA_OF_ASC_NODE":224.3568,"ARG_OF_PERICENTER":245.4844,"MEAN_ANOMALY":114.6102,"EPHEMERIS_TYPE":0,"CLASSIFICATION_TYPE":"U","NORAD_CAT_ID":67778,"ELEMENT_SET_NO":999,"REV_AT_EPOCH":492,"BSTAR":0.00088485682,"MEAN_MOTION_DOT":0.00031988,"MEAN_MOTION_DDOT":0},{"OBJECT_NAME":"KUIPER-00215","OBJECT_ID":"2026-030R","EPOCH":"2026-03-08T14:38:18.026304","MEAN_MOTION":15.34437354,"ECCENTRICITY":0.00104072,"INCLINATION":51.8848,"RA_OF_ASC_NODE":224.5853,"ARG_OF_PERICENTER":56.5731,"MEAN_ANOMALY":303.6249,"EPHEMERIS_TYPE":0,"CLASSIFICATION_TYPE":"U","NORAD_CAT_ID":67779,"ELEMENT_SET_NO":999,"REV_AT_EPOCH":492,"BSTAR":0.0008168983,"MEAN_MOTION_DOT":0.00027423,"MEAN_MOTION_DDOT":0},{"OBJECT_NAME":"KUIPER-00218","OBJECT_ID":"2026-030S","EPOCH":"2026-03-08T14:22:22.139904","MEAN_MOTION":15.35152136,"ECCENTRICITY":0.00069212,"INCLINATION":51.8833,"RA_OF_ASC_NODE":224.5119,"ARG_OF_PERICENTER":47.7932,"MEAN_ANOMALY":312.3641,"EPHEMERIS_TYPE":0,"CLASSIFICATION_TYPE":"U","NORAD_CAT_ID":67780,"ELEMENT_SET_NO":999,"REV_AT_EPOCH":492,"BSTAR":0.00080345506,"MEAN_MOTION_DOT":0.00027568,"MEAN_MOTION_DDOT":0},{"OBJECT_NAME":"KUIPER-00220","OBJECT_ID":"2026-030T","EPOCH":"2026-03-08T14:32:25.058112","MEAN_MOTION":15.3474445,"ECCENTRICITY":0.00086827,"INCLINATION":51.8813,"RA_OF_ASC_NODE":224.55,"ARG_OF_PERICENTER":52.7628,"MEAN_ANOMALY":307.4149,"EPHEMERIS_TYPE":0,"CLASSIFICATION_TYPE":"U","NORAD_CAT_ID":67781,"ELEMENT_SET_NO":999,"REV_AT_EPOCH":492,"BSTAR":0.0012193232,"MEAN_MOTION_DOT":0.00041585,"MEAN_MOTION_DDOT":0},{"OBJECT_NAME":"KUIPER-00222","OBJECT_ID":"2026-030U","EPOCH":"2026-03-08T13:37:24.114144","MEAN_MOTION":15.3240638,"ECCENTRICITY":0.00171845,"INCLINATION":51.8819,"RA_OF_ASC_NODE":225.0334,"ARG_OF_PERICENTER":61.7009,"MEAN_ANOMALY":298.5707,"EPHEMERIS_TYPE":0,"CLASSIFICATION_TYPE":"U","NORAD_CAT_ID":67782,"ELEMENT_SET_NO":999,"REV_AT_EPOCH":491,"BSTAR":0.00084119255,"MEAN_MOTION_DOT":0.00026549,"MEAN_MOTION_DDOT":0},{"OBJECT_NAME":"KUIPER-00223","OBJECT_ID":"2026-030V","EPOCH":"2026-03-08T14:44:04.470432","MEAN_MOTION":15.34089347,"ECCENTRICITY":0.00127091,"INCLINATION":51.8836,"RA_OF_ASC_NODE":224.6068,"ARG_OF_PERICENTER":56.7249,"MEAN_ANOMALY":303.4953,"EPHEMERIS_TYPE":0,"CLASSIFICATION_TYPE":"U","NORAD_CAT_ID":67783,"ELEMENT_SET_NO":999,"REV_AT_EPOCH":492,"BSTAR":0.00084145399,"MEAN_MOTION_DOT":0.0002797,"MEAN_MOTION_DDOT":0},{"OBJECT_NAME":"KUIPER-00225","OBJECT_ID":"2026-030W","EPOCH":"2026-03-08T14:07:18.851232","MEAN_MOTION":15.35879461,"ECCENTRICITY":0.00043829,"INCLINATION":51.8807,"RA_OF_ASC_NODE":224.4386,"ARG_OF_PERICENTER":36.8354,"MEAN_ANOMALY":323.2933,"EPHEMERIS_TYPE":0,"CLASSIFICATION_TYPE":"U","NORAD_CAT_ID":67784,"ELEMENT_SET_NO":999,"REV_AT_EPOCH":492,"BSTAR":0.00083773401,"MEAN_MOTION_DOT":0.0002944,"MEAN_MOTION_DDOT":0},{"OBJECT_NAME":"KUIPER-00226","OBJECT_ID":"2026-030X","EPOCH":"2026-03-08T13:57:34.979040","MEAN_MOTION":15.30751718,"ECCENTRICITY":0.0019649,"INCLINATION":51.8812,"RA_OF_ASC_NODE":225.1245,"ARG_OF_PERICENTER":69.7781,"MEAN_ANOMALY":290.5314,"EPHEMERIS_TYPE":0,"CLASSIFICATION_TYPE":"U","NORAD_CAT_ID":67785,"ELEMENT_SET_NO":999,"REV_AT_EPOCH":491,"BSTAR":-0.0039012803,"MEAN_MOTION_DOT":-0.00116963,"MEAN_MOTION_DDOT":0},{"OBJECT_NAME":"KUIPER-00259","OBJECT_ID":"2026-030Y","EPOCH":"2026-03-08T14:25:36.353280","MEAN_MOTION":15.35057432,"ECCENTRICITY":0.00086886,"INCLINATION":51.8809,"RA_OF_ASC_NODE":224.5193,"ARG_OF_PERICENTER":46.8447,"MEAN_ANOMALY":313.3264,"EPHEMERIS_TYPE":0,"CLASSIFICATION_TYPE":"U","NORAD_CAT_ID":67786,"ELEMENT_SET_NO":999,"REV_AT_EPOCH":492,"BSTAR":0.00097236854,"MEAN_MOTION_DOT":0.00033383,"MEAN_MOTION_DDOT":0},{"OBJECT_NAME":"KUIPER-00260","OBJECT_ID":"2026-030Z","EPOCH":"2026-03-08T13:54:34.377984","MEAN_MOTION":15.36459954,"ECCENTRICITY":0.00011693,"INCLINATION":51.8799,"RA_OF_ASC_NODE":224.3806,"ARG_OF_PERICENTER":47.1104,"MEAN_ANOMALY":312.9981,"EPHEMERIS_TYPE":0,"CLASSIFICATION_TYPE":"U","NORAD_CAT_ID":67787,"ELEMENT_SET_NO":999,"REV_AT_EPOCH":483,"BSTAR":0.00087946188,"MEAN_MOTION_DOT":0.00031515,"MEAN_MOTION_DDOT":0},{"OBJECT_NAME":"KUIPER-00262","OBJECT_ID":"2026-030AA","EPOCH":"2026-03-08T13:48:48.676896","MEAN_MOTION":15.36643979,"ECCENTRICITY":2.865e-5,"INCLINATION":51.8814,"RA_OF_ASC_NODE":224.3576,"ARG_OF_PERICENTER":84.8663,"MEAN_ANOMALY":275.2356,"EPHEMERIS_TYPE":0,"CLASSIFICATION_TYPE":"U","NORAD_CAT_ID":67788,"ELEMENT_SET_NO":999,"REV_AT_EPOCH":492,"BSTAR":0.00092097486,"MEAN_MOTION_DOT":0.00033227,"MEAN_MOTION_DDOT":0},{"OBJECT_NAME":"KUIPER-00266","OBJECT_ID":"2026-030AB","EPOCH":"2026-03-08T14:04:36.102144","MEAN_MOTION":15.30913759,"ECCENTRICITY":0.00222995,"INCLINATION":51.8806,"RA_OF_ASC_NODE":225.1532,"ARG_OF_PERICENTER":70.9138,"MEAN_ANOMALY":289.4258,"EPHEMERIS_TYPE":0,"CLASSIFICATION_TYPE":"U","NORAD_CAT_ID":67789,"ELEMENT_SET_NO":999,"REV_AT_EPOCH":491,"BSTAR":0.00030627624,"MEAN_MOTION_DOT":8.987e-5,"MEAN_MOTION_DDOT":0},{"OBJECT_NAME":"KUIPER-00268","OBJECT_ID":"2026-030AC","EPOCH":"2026-03-08T14:03:23.381856","MEAN_MOTION":15.35980332,"ECCENTRICITY":0.00026698,"INCLINATION":51.8842,"RA_OF_ASC_NODE":224.4303,"ARG_OF_PERICENTER":40.8943,"MEAN_ANOMALY":319.2244,"EPHEMERIS_TYPE":0,"CLASSIFICATION_TYPE":"U","NORAD_CAT_ID":67790,"ELEMENT_SET_NO":999,"REV_AT_EPOCH":492,"BSTAR":0.00081570312,"MEAN_MOTION_DOT":0.00028742,"MEAN_MOTION_DDOT":0},{"OBJECT_NAME":"KUIPER-00270","OBJECT_ID":"2026-030AD","EPOCH":"2026-03-08T14:34:39.912096","MEAN_MOTION":15.34632124,"ECCENTRICITY":0.00105087,"INCLINATION":51.8812,"RA_OF_ASC_NODE":224.5601,"ARG_OF_PERICENTER":53.3743,"MEAN_ANOMALY":306.8207,"EPHEMERIS_TYPE":0,"CLASSIFICATION_TYPE":"U","NORAD_CAT_ID":67791,"ELEMENT_SET_NO":999,"REV_AT_EPOCH":492,"BSTAR":0.0011236094,"MEAN_MOTION_DOT":0.00038156,"MEAN_MOTION_DDOT":0},{"OBJECT_NAME":"KUIPER-00274","OBJECT_ID":"2026-030AE","EPOCH":"2026-03-08T14:00:01.999872","MEAN_MOTION":15.29858673,"ECCENTRICITY":0.00181375,"INCLINATION":51.8827,"RA_OF_ASC_NODE":225.0642,"ARG_OF_PERICENTER":67.9703,"MEAN_ANOMALY":330.3325,"EPHEMERIS_TYPE":0,"CLASSIFICATION_TYPE":"U","NORAD_CAT_ID":67792,"ELEMENT_SET_NO":999,"REV_AT_EPOCH":390,"BSTAR":-7.1751365e-5,"MEAN_MOTION_DOT":-2.486e-5,"MEAN_MOTION_DDOT":0}]
