KUIPER-00213            
1 67777U 26030P   26067.62876366 -.00228383  00000+0 -73765-2 0  9997
2 67777  51.8819 224.6944 0015196  62.8691 297.3842 15.32369352  4922
KUIPER-00214            
1 67778U 26030Q   26067.57452260  .00031988  00000+0  88486-3 0  9993
2 67778  51.8845 224.3568 0000396 245.4844 114.6102 15.36726044  4925
KUIPER-00215            
1 67779U 26030R   26067.60993086  .00027423  00000+0  81690-3 0  9993
2 67779  51.8848 224.5853 0010407  56.5731 303.6249 15.34437354  4921
KUIPER-00218            
1 67780U 26030S   26067.59886736  .00027568  00000+0  80346-3 0  9993
2 67780  51.8833 224.5119 0006921  47.7932 312.3641 15.35152136  4929
KUIPER-00220            
1 67781U 26030T   26067.60584558  .00041585  00000+0  12193-2 0  9992
2 67781  51.8813 224.5500 0008682  52.7628 307.4149 15.34744450  4929
KUIPER-00222            
1 67782U 26030U   26067.56764021  .00026549  00000+0  84119-3 0  9994
2 67782  51.8819 225.0334 0017184  61.7009 298.5707 15.32406380  4911
KUIPER-00223            
1 67783U 26030V   26067.61394063  .00027970  00000+0  84145-3 0  9994
2 67783  51.8836 224.6068 0012709  56.7249 303.4953 15.34089347  4920
KUIPER-00225            
1 67784U 26030W   26067.58841263  .00029440  00000+0  83773-3 0  9990
2 67784  51.8807 224.4386 0004382  36.8354 323.2933 15.35879461  4927
KUIPER-00226            
1 67785U 26030X   26067.58165485 -.00116963  00000+0 -39013-2 0  9992
2 67785  51.8812 225.1245 0019649  69.7781 290.5314 15.30751718  4914
KUIPER-00259            
1 67786U 26030Y   26067.60111520  .00033383  00000+0  97237-3 0  9992
2 67786  51.8809 224.5193 0008688  46.8447 313.3264 15.35057432  4928
KUIPER-00260            
1 67787U 26030Z   26067.57956456  .00031515  00000+0  87946-3 0  9995
2 67787  51.8799 224.3806 0001169  47.1104 312.9981 15.36459954  4834
KUIPER-00262            
1 67788U 26030AA  26067.57556339  .00033227  00000+0  92097-3 0  9997
2 67788  51.8814 224.3576 0000286  84.8663 275.2356 15.36643979  4923
KUIPER-00266            
1 67789U 26030AB  26067.58652896  .00008987  00000+0  30628-3 0  9991
2 67789  51.8806 225.1532 0022299  70.9138 289.4258 15.30913759  4914
KUIPER-00268            
1 67790U 26030AC  26067.58568729  .00028742  00000+0  81570-3 0  9997
2 67790  51.8842 224.4303 0002669  40.8943 319.2244 15.35980332  4927
KUIPER-00270            
1 67791U 26030AD  26067.60740639  .00038156  00000+0  11236-2 0  9994
2 67791  51.8812 224.5601 0010508  53.3743 306.8207 15.34632124  4928
KUIPER-00274            
1 67792U 26030AE  26067.58335648 -.00002486  00000+0 -71751-4 0  9991
2 67792  51.8827 225.0642 0018137  67.9703 330.3325 15.29858673  3902
